ONEWEB-0446             
1 51640U 22012U   24129.56346773  .00002478  00000+0  70613-2 0  9991
2 51640  87.8974 189.2528 0002430  90.6416 269.4990 13.10358605108539
ONEWEB-0448             
1 51641U 22012V   24129.56843844 -.00000562  00000+0 -16449-2 0  9994
2 51641  87.8974 189.2525 0001920 103.8498 256.2842 13.10371067108501
ONEWEB-0449             
1 51642U 22012W   24129.57341088 -.00000627  00000+0 -18326-2 0  9997
2 51642  87.8970 189.2490 0001842  93.3436 266.7903 13.10370641108519
ONEWEB-0451             
1 51643U 22012X   24129.59524621  .00000019  00000+0  16173-4 0  9999
2 51643  87.9176 159.0223 0001901  96.2921 263.8428 13.17648151112319
ONEWEB-0452             
1 51644U 22012Y   24129.59365437 -.00000022  00000+0 -90327-4 0  9997
2 51644  87.9181 159.0601 0001704  90.5057 269.6270 13.17647960112321
ONEWEB-0456             
1 51646U 22012AA  24129.58336921 -.00000564  00000+0 -16506-2 0  9990
2 51646  87.8971 189.2210 0002410 103.4969 256.6427 13.10372797108557
ONEWEB-0457             
1 51647U 22012AB  24129.56013903 -.00000157  00000+0 -48486-3 0  9992
2 51647  87.8973 189.2436 0001905  88.0616 272.0730 13.10368105108552
ONEWEB-0458             
1 51648U 22012AC  24129.58170830 -.00000638  00000+0 -18651-2 0  9992
2 51648  87.8979 189.2548 0001911 101.6915 258.4427 13.10372035108518
